{
  "type": "FeatureCollection",
  "features": [
    {
      "type": "Feature",
      "properties": {
        "norad_id": 41556,
        "name": "ZIYUAN 3-2 (ZY 3-2)",
        "group": "resource",
        "lat": 75.56152600283613,
        "lon": 21.63012679134552,
        "alt_km": 502.4182827878394,
        "timestamp": "2025-12-03T15:48:02.758995+00:00",
        "meta_object_name": "ZIYUAN 3-2 (ZY 3-2)",
        "meta_object_id": "2016-033A",
        "meta_epoch": "2025-12-03T09:08:46.430880",
        "meta_mean_motion": 15.21283149,
        "meta_eccentricity": 0.00124361,
        "meta_inclination": 97.4061,
        "meta_ra_of_asc_node": 51.7024,
        "meta_arg_of_pericenter": 285.6875,
        "meta_mean_anomaly": 74.2989,
        "meta_ephemeris_type": 0,
        "meta_classification_type": "U",
        "meta_norad_cat_id": 41556,
        "meta_element_set_no": 999,
        "meta_rev_at_epoch": 52821,
        "meta_bstar": 0.00042662156,
        "meta_mean_motion_dot": 9.493e-05,
        "meta_mean_motion_ddot": 0,
        "tle_line1": "1 41556U 16033A   25337.38109295  .00009493  00000+0  42662-3 0  9998",
        "tle_line2": "2 41556  97.4061  51.7024 0012436 285.6875  74.2989 15.21283149528219"
      },
      "geometry": {
        "type": "Point",
        "coordinates": [
          21.63012679134552,
          75.56152600283613
        ]
      }
    },
    {
      "type": "Feature",
      "properties": {
        "norad_id": 41599,
        "name": "CARTOSAT-2C",
        "group": "resource",
        "lat": 82.13907361214565,
        "lon": -72.93799164443465,
        "alt_km": 493.4350773936085,
        "timestamp": "2025-12-03T15:48:02.759004+00:00",
        "meta_object_name": "CARTOSAT-2C",
        "meta_object_id": "2016-040A",
        "meta_epoch": "2025-12-03T07:29:30.574752",
        "meta_mean_motion": 15.19140873,
        "meta_eccentricity": 0.00109496,
        "meta_inclination": 97.478,
        "meta_ra_of_asc_node": 34.6596,
        "meta_arg_of_pericenter": 93.6527,
        "meta_mean_anomaly": 266.596,
        "meta_ephemeris_type": 0,
        "meta_classification_type": "U",
        "meta_norad_cat_id": 41599,
        "meta_element_set_no": 999,
        "meta_rev_at_epoch": 52397,
        "meta_bstar": 3.3596901e-05,
        "meta_mean_motion_dot": 6.38e-06,
        "meta_mean_motion_ddot": 0,
        "tle_line1": "1 41599U 16040A   25337.31215943  .00000638  00000+0  33597-4 0  9994",
        "tle_line2": "2 41599  97.4780  34.6596 0010949  93.6527 266.5960 15.19140873523972"
      },
      "geometry": {
        "type": "Point",
        "coordinates": [
          -72.93799164443465,
          82.13907361214565
        ]
      }
    },
    {
      "type": "Feature",
      "properties": {
        "norad_id": 41601,
        "name": "SKYSAT-C1",
        "group": "resource",
        "lat": 74.23225458065446,
        "lon": -10.545174067442293,
        "alt_km": 460.01930262839505,
        "timestamp": "2025-12-03T15:48:02.759014+00:00",
        "meta_object_name": "SKYSAT-C1",
        "meta_object_id": "2016-040C",
        "meta_epoch": "2025-12-03T01:21:56.872800",
        "meta_mean_motion": 15.3231257,
        "meta_eccentricity": 0.00033351,
        "meta_inclination": 96.984,
        "meta_ra_of_asc_node": 14.6184,
        "meta_arg_of_pericenter": 39.7719,
        "meta_mean_anomaly": 320.3768,
        "meta_ephemeris_type": 0,
        "meta_classification_type": "U",
        "meta_norad_cat_id": 41601,
        "meta_element_set_no": 999,
        "meta_rev_at_epoch": 52779,
        "meta_bstar": 0.00041279852,
        "meta_mean_motion_dot": 0.00012816,
        "meta_mean_motion_ddot": 0,
        "tle_line1": "1 41601U 16040C   25337.05690825  .00012816  00000+0  41280-3 0  9993",
        "tle_line2": "2 41601  96.9840  14.6184 0003335  39.7719 320.3768 15.32312570527792"
      },
      "geometry": {
        "type": "Point",
        "coordinates": [
          -10.545174067442293,
          74.23225458065446
        ]
      }
    },
    {
      "type": "Feature",
      "properties": {
        "norad_id": 41603,
        "name": "LAPAN-A3",
        "group": "resource",
        "lat": -69.75144361407435,
        "lon": 135.6744876972528,
        "alt_km": 482.12896390087644,
        "timestamp": "2025-12-03T15:48:02.759023+00:00",
        "meta_object_name": "LAPAN-A3",
        "meta_object_id": "2016-040E",
        "meta_epoch": "2025-12-03T08:26:06.009216",
        "meta_mean_motion": 15.31433547,
        "meta_eccentricity": 0.00108483,
        "meta_inclination": 97.1422,
        "meta_ra_of_asc_node": 335.2507,
        "meta_arg_of_pericenter": 8.4266,
        "meta_mean_anomaly": 351.7156,
        "meta_ephemeris_type": 0,
        "meta_classification_type": "U",
        "meta_norad_cat_id": 41603,
        "meta_element_set_no": 999,
        "meta_rev_at_epoch": 52482,
        "meta_bstar": 0.00017642471,
        "meta_mean_motion_dot": 5.29e-05,
        "meta_mean_motion_ddot": 0,
        "tle_line1": "1 41603U 16040E   25337.35145844  .00005290  00000+0  17642-3 0  9997",
        "tle_line2": "2 41603  97.1422 335.2507 0010848   8.4266 351.7156 15.31433547524828"
      },
      "geometry": {
        "type": "Point",
        "coordinates": [
          135.6744876972528,
          -69.75144361407435
        ]
      }
    },
    {
      "type": "Feature",
      "properties": {
        "norad_id": 41604,
        "name": "BIROS",
        "group": "resource",
        "lat": 35.282667338356056,
        "lon": 3.7138981611558632,
        "alt_km": 312.7680859387383,
        "timestamp": "2025-12-03T15:48:02.759032+00:00",
        "meta_object_name": "BIROS",
        "meta_object_id": "2016-040F",
        "meta_epoch": "2025-12-03T08:04:45.191424",
        "meta_mean_motion": 15.85840463,
        "meta_eccentricity": 0.00026414,
        "meta_inclination": 97.0708,
        "meta_ra_of_asc_node": 8.4199,
        "meta_arg_of_pericenter": 174.4509,
        "meta_mean_anomaly": 185.6792,
        "meta_ephemeris_type": 0,
        "meta_classification_type": "U",
        "meta_norad_cat_id": 41604,
        "meta_element_set_no": 999,
        "meta_rev_at_epoch": 52723,
        "meta_bstar": 0.00068583473,
        "meta_mean_motion_dot": 0.00169306,
        "meta_mean_motion_ddot": 0,
        "tle_line1": "1 41604U 16040F   25337.33663416  .00169306  00000+0  68583-3 0  9995",
        "tle_line2": "2 41604  97.0708   8.4199 0002641 174.4509 185.6792 15.85840463527233"
      },
      "geometry": {
        "type": "Point",
        "coordinates": [
          3.7138981611558632,
          35.282667338356056
        ]
      }
    },
    {
      "type": "Feature",
      "properties": {
        "norad_id": 41727,
        "name": "GAOFEN-3",
        "group": "resource",
        "lat": 60.95773872089274,
        "lon": -32.05760954077079,
        "alt_km": 744.1444573467488,
        "timestamp": "2025-12-03T15:48:02.759041+00:00",
        "meta_object_name": "GAOFEN-3",
        "meta_object_id": "2016-049A",
        "meta_epoch": "2025-12-03T07:11:18.694752",
        "meta_mean_motion": 14.42209634,
        "meta_eccentricity": 0.00015957,
        "meta_inclination": 98.4041,
        "meta_ra_of_asc_node": 343.0297,
        "meta_arg_of_pericenter": 73.3962,
        "meta_mean_anomaly": 286.7403,
        "meta_ephemeris_type": 0,
        "meta_classification_type": "U",
        "meta_norad_cat_id": 41727,
        "meta_element_set_no": 999,
        "meta_rev_at_epoch": 49041,
        "meta_bstar": 4.33792e-06,
        "meta_mean_motion_dot": -2.9e-07,
        "meta_mean_motion_ddot": 0,
        "tle_line1": "1 41727U 16049A   25337.29952193 -.00000029  00000+0  43379-5 0  9993",
        "tle_line2": "2 41727  98.4041 343.0297 0001595  73.3962 286.7403 14.42209634490410"
      },
      "geometry": {
        "type": "Point",
        "coordinates": [
          -32.05760954077079,
          60.95773872089274
        ]
      }
    },
    {
      "type": "Feature",
      "properties": {
        "norad_id": 41771,
        "name": "SKYSAT-C4",
        "group": "resource",
        "lat": 57.31819353543787,
        "lon": -7.651782467821418,
        "alt_km": 434.94309690176397,
        "timestamp": "2025-12-03T15:48:02.759051+00:00",
        "meta_object_name": "SKYSAT-C4",
        "meta_object_id": "2016-058B",
        "meta_epoch": "2025-12-03T07:45:43.626240",
        "meta_mean_motion": 15.41830666,
        "meta_eccentricity": 7.248e-05,
        "meta_inclination": 96.9384,
        "meta_ra_of_asc_node": 2.9722,
        "meta_arg_of_pericenter": 115.0599,
        "meta_mean_anomaly": 245.0725,
        "meta_ephemeris_type": 0,
        "meta_classification_type": "U",
        "meta_norad_cat_id": 41771,
        "meta_element_set_no": 999,
        "meta_rev_at_epoch": 51522,
        "meta_bstar": 0.00043666707,
        "meta_mean_motion_dot": 0.00018449,
        "meta_mean_motion_ddot": 0,
        "tle_line1": "1 41771U 16058B   25337.32342160  .00018449  00000+0  43667-3 0  9995",
        "tle_line2": "2 41771  96.9384   2.9722 0000724 115.0599 245.0725 15.41830666515226"
      },
      "geometry": {
        "type": "Point",
        "coordinates": [
          -7.651782467821418,
          57.31819353543787
        ]
      }
    }
  ]
}